{
  "type": "FeatureCollection",
  "features": [
    {
      "type": "Feature",
      "properties": {
        "norad_id": 22490,
        "name": "SCD 1",
        "group": "resource",
        "lat": -16.5482419297667,
        "lon": 149.94759046839116,
        "alt_km": 766.7600003927992,
        "timestamp": "2025-12-27T03:58:43.834487+00:00",
        "meta_object_name": "SCD 1",
        "meta_object_id": "1993-009B",
        "meta_epoch": "2025-12-26T15:05:04.547040",
        "meta_mean_motion": 14.46008245,
        "meta_eccentricity": 0.0042179,
        "meta_inclination": 24.9674,
        "meta_ra_of_asc_node": 192.9471,
        "meta_arg_of_pericenter": 111.7084,
        "meta_mean_anomaly": 283.5703,
        "meta_ephemeris_type": 0,
        "meta_classification_type": "U",
        "meta_norad_cat_id": 22490,
        "meta_element_set_no": 999,
        "meta_rev_at_epoch": 73611,
        "meta_bstar": 9.5318e-05,
        "meta_mean_motion_dot": 5.34e-06,
        "meta_mean_motion_ddot": 0,
        "tle_line1": "1 22490U 93009B   25360.62852485  .00000534  00000+0  95318-4 0  9995",
        "tle_line2": "2 22490  24.9674 192.9471 0042179 111.7084 283.5703 14.46008245736119"
      },
      "geometry": {
        "type": "Point",
        "coordinates": [
          149.94759046839116,
          -16.5482419297667
        ]
      }
    },
    {
      "type": "Feature",
      "properties": {
        "norad_id": 25397,
        "name": "TECHSAT 1B (GO-32)",
        "group": "resource",
        "lat": -57.961730792711656,
        "lon": -0.629344816288251,
        "alt_km": 817.6630532232866,
        "timestamp": "2025-12-27T03:58:43.834527+00:00",
        "meta_object_name": "TECHSAT 1B (GO-32)",
        "meta_object_id": "1998-043D",
        "meta_epoch": "2025-12-26T11:23:49.320096",
        "meta_mean_motion": 14.24380794,
        "meta_eccentricity": 0.000162,
        "meta_inclination": 98.9934,
        "meta_ra_of_asc_node": 344.0048,
        "meta_arg_of_pericenter": 34.4402,
        "meta_mean_anomaly": 325.6881,
        "meta_ephemeris_type": 0,
        "meta_classification_type": "U",
        "meta_norad_cat_id": 25397,
        "meta_element_set_no": 999,
        "meta_rev_at_epoch": 42674,
        "meta_bstar": 6.2807e-05,
        "meta_mean_motion_dot": 9.9e-07,
        "meta_mean_motion_ddot": 0,
        "tle_line1": "1 25397U 98043D   25360.47487639  .00000099  00000+0  62807-4 0  9998",
        "tle_line2": "2 25397  98.9934 344.0048 0001620  34.4402 325.6881 14.24380794426747"
      },
      "geometry": {
        "type": "Point",
        "coordinates": [
          -0.629344816288251,
          -57.961730792711656
        ]
      }
    },
    {
      "type": "Feature",
      "properties": {
        "norad_id": 25504,
        "name": "SCD 2",
        "group": "resource",
        "lat": -15.927168781186474,
        "lon": 15.175631930074383,
        "alt_km": 750.4777644388696,
        "timestamp": "2025-12-27T03:58:43.834540+00:00",
        "meta_object_name": "SCD 2",
        "meta_object_id": "1998-060A",
        "meta_epoch": "2025-12-26T13:56:13.357824",
        "meta_mean_motion": 14.45430804,
        "meta_eccentricity": 0.0017071,
        "meta_inclination": 24.9957,
        "meta_ra_of_asc_node": 56.5516,
        "meta_arg_of_pericenter": 99.0432,
        "meta_mean_anomaly": 49.9342,
        "meta_ephemeris_type": 0,
        "meta_classification_type": "U",
        "meta_norad_cat_id": 25504,
        "meta_element_set_no": 999,
        "meta_rev_at_epoch": 43532,
        "meta_bstar": 8.1486e-05,
        "meta_mean_motion_dot": 4.74e-06,
        "meta_mean_motion_ddot": 0,
        "tle_line1": "1 25504U 98060A   25360.58071016  .00000474  00000+0  81486-4 0  9998",
        "tle_line2": "2 25504  24.9957  56.5516 0017071  99.0432  49.9342 14.45430804435326"
      },
      "geometry": {
        "type": "Point",
        "coordinates": [
          15.175631930074383,
          -15.927168781186474
        ]
      }
    },
    {
      "type": "Feature",
      "properties": {
        "norad_id": 25757,
        "name": "DLR-TUBSAT",
        "group": "resource",
        "lat": 9.635124455672615,
        "lon": 167.60665095006547,
        "alt_km": 710.1816717958363,
        "timestamp": "2025-12-27T03:58:43.834552+00:00",
        "meta_object_name": "DLR-TUBSAT",
        "meta_object_id": "1999-029B",
        "meta_epoch": "2025-12-17T13:22:10.787520",
        "meta_mean_motion": 14.52359578,
        "meta_eccentricity": 0.00141996,
        "meta_inclination": 98.6566,
        "meta_ra_of_asc_node": 336.2196,
        "meta_arg_of_pericenter": 177.8976,
        "meta_mean_anomaly": 182.2281,
        "meta_ephemeris_type": 0,
        "meta_classification_type": "U",
        "meta_norad_cat_id": 25757,
        "meta_element_set_no": 999,
        "meta_rev_at_epoch": 40688,
        "meta_bstar": 3.7650132e-05,
        "meta_mean_motion_dot": 1.05e-06,
        "meta_mean_motion_ddot": 0,
        "tle_line1": "1 25757U 99029B   25351.55706930  .00000105  00000+0  37650-4 0  9996",
        "tle_line2": "2 25757  98.6566 336.2196 0014199 177.8976 182.2281 14.52359578406886"
      },
      "geometry": {
        "type": "Point",
        "coordinates": [
          167.60665095006547,
          9.635124455672615
        ]
      }
    },
    {
      "type": "Feature",
      "properties": {
        "norad_id": 25994,
        "name": "TERRA",
        "group": "resource",
        "lat": -43.75210730361711,
        "lon": 60.03042869171845,
        "alt_km": 697.6857688189803,
        "timestamp": "2025-12-27T03:58:43.834564+00:00",
        "meta_object_name": "TERRA",
        "meta_object_id": "1999-068A",
        "meta_epoch": "2025-12-26T18:56:16.779840",
        "meta_mean_motion": 14.6091731,
        "meta_eccentricity": 0.0003377,
        "meta_inclination": 97.973,
        "meta_ra_of_asc_node": 51.9566,
        "meta_arg_of_pericenter": 66.3807,
        "meta_mean_anomaly": 69.4508,
        "meta_ephemeris_type": 0,
        "meta_classification_type": "U",
        "meta_norad_cat_id": 25994,
        "meta_element_set_no": 999,
        "meta_rev_at_epoch": 38443,
        "meta_bstar": 0.0001118,
        "meta_mean_motion_dot": 5.03e-06,
        "meta_mean_motion_ddot": 0,
        "tle_line1": "1 25994U 99068A   25360.78908310  .00000503  00000+0  11180-3 0  9994",
        "tle_line2": "2 25994  97.9730  51.9566 0003377  66.3807  69.4508 14.60917310384434"
      },
      "geometry": {
        "type": "Point",
        "coordinates": [
          60.03042869171845,
          -43.75210730361711
        ]
      }
    },
    {
      "type": "Feature",
      "properties": {
        "norad_id": 27004,
        "name": "MAROC-TUBSAT",
        "group": "resource",
        "lat": -72.14673765318925,
        "lon": -157.71549043173542,
        "alt_km": 999.4162104678617,
        "timestamp": "2025-12-27T03:58:43.834575+00:00",
        "meta_object_name": "MAROC-TUBSAT",
        "meta_object_id": "2001-056D",
        "meta_epoch": "2025-12-26T10:56:47.892768",
        "meta_mean_motion": 13.70253538,
        "meta_eccentricity": 0.0019312,
        "meta_inclination": 99.7917,
        "meta_ra_of_asc_node": 169.1415,
        "meta_arg_of_pericenter": 223.7924,
        "meta_mean_anomaly": 162.0928,
        "meta_ephemeris_type": 0,
        "meta_classification_type": "U",
        "meta_norad_cat_id": 27004,
        "meta_element_set_no": 999,
        "meta_rev_at_epoch": 20253,
        "meta_bstar": 2.8395e-05,
        "meta_mean_motion_dot": -2.2e-07,
        "meta_mean_motion_ddot": 0,
        "tle_line1": "1 27004U 01056D   25360.45610987 -.00000022  00000+0  28395-4 0  9996",
        "tle_line2": "2 27004  99.7917 169.1415 0019312 223.7924 162.0928 13.70253538202536"
      },
      "geometry": {
        "type": "Point",
        "coordinates": [
          -157.71549043173542,
          -72.14673765318925
        ]
      }
    },
    {
      "type": "Feature",
      "properties": {
        "norad_id": 27424,
        "name": "AQUA",
        "group": "resource",
        "lat": -57.04428059386969,
        "lon": 129.09698920245125,
        "alt_km": 695.5834734683885,
        "timestamp": "2025-12-27T03:58:43.834585+00:00",
        "meta_object_name": "AQUA",
        "meta_object_id": "2002-022A",
        "meta_epoch": "2025-12-24T19:18:33.414624",
        "meta_mean_motion": 14.61757572,
        "meta_eccentricity": 0.00018094,
        "meta_inclination": 98.4055,
        "meta_ra_of_asc_node": 319.881,
        "meta_arg_of_pericenter": 102.1365,
        "meta_mean_anomaly": 317.5475,
        "meta_ephemeris_type": 0,
        "meta_classification_type": "U",
        "meta_norad_cat_id": 27424,
        "meta_element_set_no": 999,
        "meta_rev_at_epoch": 25779,
        "meta_bstar": 0.00019560508,
        "meta_mean_motion_dot": 9.26e-06,
        "meta_mean_motion_ddot": 0,
        "tle_line1": "1 27424U 02022A   25358.80455341  .00000926  00000+0  19561-3 0  9999",
        "tle_line2": "2 27424  98.4055 319.8810 0001809 102.1365 317.5475 14.61757572257795"
      },
      "geometry": {
        "type": "Point",
        "coordinates": [
          129.09698920245125,
          -57.04428059386969
        ]
      }
    }
  ]
}